STARLINK-1459_new
1 15769C 20038AR  21326.15660594  .00005376  00000-0  36021-3 0  3264
2 15769  53.0542  78.0444 0001293  76.8306 225.1918 15.06395735    17
STARLINK-1459_old
1 25769C 20038AR  21325.18072237  .00004127  00000-0  27656-3 0  3253
2 25769  53.0543  82.4250 0001304  78.1565 328.7045 15.06387630    13
